[{"OBJECT_NAME":"STARLINK-2406","OBJECT_ID":"2021-018AL","EPOCH":"2026-03-09T17:38:17.468160","MEAN_MOTION":15.30194477,"ECCENTRICITY":0.00011156,"INCLINATION":53.1598,"RA_OF_ASC_NODE":242.5448,"ARG_OF_PERICENTER":111.8067,"MEAN_ANOMALY":248.3053,"EPHEMERIS_TYPE":0,"CLASSIFICATION_TYPE":"U","NORAD_CAT_ID":47821,"ELEMENT_SET_NO":999,"REV_AT_EPOCH":27673,"BSTAR":-8.3276659e-5,"MEAN_MOTION_DOT":-2.824e-5,"MEAN_MOTION_DDOT":0},{"OBJECT_NAME":"GEISAT PRECURSOR","OBJECT_ID":"2023-084C","EPOCH":"2026-03-09T22:20:25.833120","MEAN_MOTION":15.33054389,"ECCENTRICITY":0.00051675,"INCLINATION":97.6055,"RA_OF_ASC_NODE":206.8263,"ARG_OF_PERICENTER":345.1842,"MEAN_ANOMALY":14.9247,"EPHEMERIS_TYPE":0,"CLASSIFICATION_TYPE":"U","NORAD_CAT_ID":56934,"ELEMENT_SET_NO":999,"REV_AT_EPOCH":15231,"BSTAR":0.00033857167,"MEAN_MOTION_DOT":0.00010736,"MEAN_MOTION_DDOT":0}]
